NUSAT-1 (FRESCO)        
1 41557U 16033B   22142.48634095  .00020448  00000+0  61978-3 0  9996
2 41557  97.3869 240.1529 0012880 111.8396 312.3923 15.34086791333407
BEESAT-4                
1 41619U 16040W   22141.64116585  .00024892  00000+0  84659-3 0  9997
2 41619  97.2183 192.9966 0009446 201.3359 158.7489 15.30387350316626
CAS-2T & KS-1Q          
1 41847U 16066G   22141.91197883  .00000786  00000+0  12924-3 0  9990
2 41847  98.5519 206.6061 0362781 289.3419  66.8882 14.38550833290534
NAYIF-1 (EO-88)         
1 42017U 17008BX  22141.75880211  .00028093  00000+0  85923-3 0  9993
2 42017  97.2694 208.2726 0004159 357.5750   2.5472 15.33808138292981
ZHUHAI-1 02 (CAS-4B)    
1 42759U 17034B   22142.35935492  .00004657  00000+0  28134-3 0  9995
2 42759  43.0162 116.5105 0007295 126.3147  26.7623 15.11706634272406
ZHUHAI-1 01 (CAS-4A)    
1 42761U 17034D   22142.39284457  .00004965  00000+0  29829-3 0  9994
2 42761  43.0160 115.1310 0007819 129.7630   2.2584 15.11802009272415
MAX VALIER SAT          
1 42778U 17036P   22142.37022951  .00014025  00000+0  53717-3 0  9992
2 42778  97.2076 184.3716 0012532  65.5804 294.6741 15.26571519272929
RADFXSAT (FOX-1B)       
1 43017U 17073E   22141.68970734  .00005118  00000+0  39028-3 0  9996
2 43017  97.6771  36.9730 0247603 275.5217  81.7804 14.81254382243154
FOX-1D (AO-92)          
1 43137U 18004AC  22141.65875635  .00017638  00000+0  62958-3 0  9993
2 43137  97.3684 217.0646 0009334  98.8536 261.3761 15.28885334242259
DIWATA-2B               
1 43678U 18084H   22142.56492629  .00001184  00000+0  12219-3 0  9994
2 43678  97.9663 275.5337 0010318  18.7171 341.4412 14.92125809193991
ES'HAIL 2               
1 43700U 18090A   22142.32011854  .00000134  00000+0  00000+0 0  9993
2 43700   0.0139 313.8679 0001198 111.5122 315.5564  1.00270765 13010
FOX-1CLIFF (AO-95)      
1 43770U 18099N   22141.90937675  .00004890  00000+0  43667-3 0  9993
2 43770  97.6202 208.9483 0014114  10.2291 349.9215 14.96306906189048
ITASAT 1                
1 43786U 18099AE  22141.70478611  .00003928  00000+0  35031-3 0  9995
2 43786  97.6233 209.6533 0014706   3.2610 356.8705 14.96470550189056
JY1SAT (JO-97)          
1 43803U 18099AX  22141.73117246  .00006096  00000+0  53434-3 0  9998
2 43803  97.6195 209.4275 0014354   4.3206 355.8137 14.96935768189073
UWE-4                   
1 43880U 18111E   22141.68335988  .00006665  00000+0  56815-3 0  9995
2 43880  97.6688  48.4602 0013474  57.3982 302.8539 14.98001505185698
NEXUS (FO-99)           
1 43937U 19003F   22142.34213469  .00018751  00000+0  64209-3 0  9997
2 43937  97.1323 176.7175 0019221 243.5565 116.3705 15.30084429185982
PSAT2 (NO-104)          
1 44354U 19036R   22141.92793454  .00104098 -36513-5  99965-3 0  9999
2 44354  28.5266   1.7916 0243395  32.2988 329.2266 15.36039691160597
JAISAT-1                
1 44419U 19038F   22141.92279309  .00015537  00000+0  78700-3 0  9999
2 44419  97.6341 111.8435 0018067 218.4562 141.5385 15.16933832159033
DUCHIFAT-3              
1 44854U 19089C   22142.44456174  .00006257  00000+0  48741-3 0  9994
2 44854  36.9669 254.5183 0008909   4.7840  74.4785 15.00913146134028
CAS-6 (TO-108)          
1 44881U 19093C   22142.30914043  .00000965  00000+0  12911-3 0  9998
2 44881  97.8924 221.8931 0013628 271.7188  88.2478 14.81696721130901
RS-44 & BREEZE-KM R/B   
1 44909U 19096E   22141.76573791  .00000033  00000+0  84099-4 0  9995
2 44909  82.5224 248.0013 0217609  22.4220 338.6216 12.79713293112092
ORBITAL FACTORY 2 (OF-2)
1 45113U 19071C   22141.84532666  .00035727  00000+0  77019-3 0  9992
2 45113  51.6377 190.1687 0010618  65.7295 294.4799 15.44178823129264
HUSKYSAT-1 (HO-107)     
1 45119U 19071J   22142.16024207  .00028691  00000+0  63687-3 0  9999
2 45119  51.6372 188.4991 0010426  64.7981 295.4085 15.43425780129301
BY70-2                  
1 45857U 20042B   22142.45844794  .00011728  00000+0  15735-2 0  9994
2 45857  97.9547 219.5540 0011124 191.7657 168.3326 14.79462802101614
SALSAT                  
1 46495U 20068K   22141.82498368  .00004810  00000+0  34786-3 0  9995
2 46495  97.7283  83.1220 0017032  15.4861 344.6882 15.04398476 90180
BY70-3                  
1 46839U 20079N   22142.34070436  .00033348  00000+0  80993-3 0  9998
2 46839  97.1989 214.7945 0006884  78.2094 346.2312 15.40916471 86220
RADFXSAT-2 (AO-109)     
1 47311U 21002C   22142.37561452  .00014489  00000+0  58693-3 0  9994
2 47311  60.6849 100.3859 0012405 303.4420  56.5481 15.24878867 74494
UVSQ-SAT                
1 47438U 21006AB  22141.67225814  .00011170  00000+0  59376-3 0  9992
2 47438  97.4376 201.2353 0012018  16.3108 343.8509 15.15387145 73227
DIY-1 (ARDUIQUBE)       
1 47963U 21022AH  22142.22471818  .00026084  00000+0  14843-2 0  9991
2 47963  97.5338  43.8991 0015775 216.5883 143.4272 15.12719967 62984
XW-3 (CAS-9)            
1 50466U 21131B   22142.43598932  .00000450  00000+0  16197-3 0  9998
2 50466  98.5806 219.7016 0003983 210.6640 149.4315 14.38489870 21177
